ISS (ZARYA)             
1 25544U 98067A   26091.42366593  .00007873  00000+0  15247-3 0  9992
2 25544  51.6332 319.9685 0006221 259.3790 100.6498 15.48695066559859
POISK                   
1 36086U 09060A   26091.42366593  .00007873  00000+0  15247-3 0  9990
2 36086  51.6332 319.9685 0006221 259.3790 100.6498 15.48695066559661
CSS (TIANHE)            
1 48274U 21035A   26091.36022109  .00024066  00000+0  27286-3 0  9992
2 48274  41.4670  70.0996 0003722  85.9086 274.2179 15.61804306281153
ISS (NAUKA)             
1 49044U 21066A   26091.42366593  .00007873  00000+0  15247-3 0  9998
2 49044  51.6332 319.9685 0006221 259.3790 100.6498 15.48695066559704
FREGAT DEB              
1 49271U 11037PF  26091.40451251  .00007093  00000+0  10238-1 0  9998
2 49271  51.6434 232.5447 0958506 111.4864 259.0863 12.40826791215510
CSS (WENTIAN)           
1 53239U 22085A   26091.36022109  .00024066  00000+0  27286-3 0  9995
2 53239  41.4670  70.0996 0003722  85.9086 274.2179 15.61804306281419
CSS (MENGTIAN)          
1 54216U 22143A   26091.36022109  .00024066  00000+0  27286-3 0  9996
2 54216  41.4670  70.0996 0003722  85.9086 274.2179 15.61804306281415
TIANZHOU-9              
1 64786U 25149A   26091.36022109  .00024066  00000+0  27286-3 0  9998
2 64786  41.4670  70.0996 0003722  85.9086 274.2179 15.61804306281418
PROGRESS-MS 32          
1 65586U 25204A   26090.90744203  .00010588  00000+0  20219-3 0  9997
2 65586  51.6333 322.5210 0006213 256.9314 103.0981 15.48687442554500
YOTSUBA-KULOVER         
1 65941U 98067XN  26090.87808050  .00468364  98467-4  12276-2 0  9997
2 65941  51.6165 301.1906 0006827 240.2535 119.7794 15.94260601 27028
BOTAN                   
1 65943U 98067XQ  26090.01293832  .00437127  84923-4  12667-2 0  9990
2 65943  51.6201 305.9446 0006756 227.9633 132.0799 15.92367740 26880
HRC MONOBLOCK CAMERA    
1 66052U 98067XR  26091.00856420  .00064086  00000+0  64935-3 0  9995
2 66052  51.6275 312.6913 0003828 200.7810 159.3030 15.64633042 25889
HTV-X1                  
1 66174U 25241A   26091.47442409  .00001232  00000+0  50371-4 0  9997
2 66174  51.6374 323.2502 0007223 261.0182  98.9982 15.32489270 24432
SZ-21 MODULE            
1 66515U 25246C   26091.28153335  .00041682  00000+0  33251-3 0  9997
2 66515  41.4741  64.1049 0002480 219.0022 141.0642 15.70350675 21628
SHENZHOU-22             
1 66645U 25272A   26091.36022109  .00024066  00000+0  27286-3 0  9991
2 66645  41.4670  70.0996 0003722  85.9086 274.2179 15.61804306281414
SOYUZ-MS 28             
1 66664U 25275A   26091.42366593  .00007873  00000+0  15247-3 0  9991
2 66664  51.6332 319.9685 0006221 259.3790 100.6498 15.48695066559947
